{"fetched_at":"2026-07-07T18:29:06.539Z","source":"https://celestrak.org/NORAD/elements/gp.php?GROUP=oneweb&FORMAT=JSON","constellation":"oneweb","records":[{"OBJECT_NAME":"ONEWEB-0207","OBJECT_ID":"2021-031AJ","EPOCH":"2026-07-07T04:43:54.725088","CLASSIFICATION_TYPE":"U","MEAN_MOTION":13.14504437,"ECCENTRICITY":0.0002142,"INCLINATION":87.8978,"RA_OF_ASC_NODE":285.713,"ARG_OF_PERICENTER":92.7313,"MEAN_ANOMALY":267.4061,"EPHEMERIS_TYPE":0,"NORAD_CAT_ID":48242,"ELEMENT_SET_NO":999,"REV_AT_EPOCH":25092,"BSTAR":0.00035629,"MEAN_MOTION_DOT":0.00000145,"MEAN_MOTION_DDOT":0},{"OBJECT_NAME":"ONEWEB-0208","OBJECT_ID":"2021-031AK","EPOCH":"2026-07-07T06:07:16.525632","CLASSIFICATION_TYPE":"U","MEAN_MOTION":13.1450188,"ECCENTRICITY":0.0002308,"INCLINATION":87.8971,"RA_OF_ASC_NODE":285.7072,"ARG_OF_PERICENTER":105.8221,"MEAN_ANOMALY":254.3163,"EPHEMERIS_TYPE":0,"NORAD_CAT_ID":48243,"ELEMENT_SET_NO":999,"REV_AT_EPOCH":25094,"BSTAR":0.00053531,"MEAN_MOTION_DOT":0.00000211,"MEAN_MOTION_DDOT":0},{"OBJECT_NAME":"ONEWEB-0200","OBJECT_ID":"2021-031AL","EPOCH":"2026-07-07T05:14:45.459744","CLASSIFICATION_TYPE":"U","MEAN_MOTION":13.14501784,"ECCENTRICITY":0.0002118,"INCLINATION":87.8983,"RA_OF_ASC_NODE":285.7028,"ARG_OF_PERICENTER":99.8412,"MEAN_ANOMALY":260.2957,"EPHEMERIS_TYPE":0,"NORAD_CAT_ID":48244,"ELEMENT_SET_NO":999,"REV_AT_EPOCH":25086,"BSTAR":-0.00055346,"MEAN_MOTION_DOT":-0.00000192,"MEAN_MOTION_DDOT":0},{"OBJECT_NAME":"ONEWEB-0217","OBJECT_ID":"2021-031AM","EPOCH":"2026-07-07T05:37:35.521824","CLASSIFICATION_TYPE":"U","MEAN_MOTION":13.14502546,"ECCENTRICITY":0.0002336,"INCLINATION":87.8981,"RA_OF_ASC_NODE":285.7037,"ARG_OF_PERICENTER":105.7443,"MEAN_ANOMALY":254.3944,"EPHEMERIS_TYPE":0,"NORAD_CAT_ID":48245,"ELEMENT_SET_NO":999,"REV_AT_EPOCH":25081,"BSTAR":-0.00025734,"MEAN_MOTION_DOT":-8.3e-7,"MEAN_MOTION_DDOT":0},{"OBJECT_NAME":"ONEWEB-0211","OBJECT_ID":"2021-045A","EPOCH":"2026-07-07T11:43:05.054016","CLASSIFICATION_TYPE":"U","MEAN_MOTION":13.16197582,"ECCENTRICITY":0.0002532,"INCLINATION":87.8996,"RA_OF_ASC_NODE":255.0331,"ARG_OF_PERICENTER":110.913,"MEAN_ANOMALY":249.2272,"EPHEMERIS_TYPE":0,"NORAD_CAT_ID":48767,"ELEMENT_SET_NO":999,"REV_AT_EPOCH":24711,"BSTAR":0.00014782,"MEAN_MOTION_DOT":6.9e-7,"MEAN_MOTION_DDOT":0},{"OBJECT_NAME":"ONEWEB-0223","OBJECT_ID":"2021-045B","EPOCH":"2026-07-07T04:42:44.239104","CLASSIFICATION_TYPE":"U","MEAN_MOTION":13.15548122,"ECCENTRICITY":0.0002152,"INCLINATION":87.9,"RA_OF_ASC_NODE":255.2052,"ARG_OF_PERICENTER":109.8245,"MEAN_ANOMALY":250.3118,"EPHEMERIS_TYPE":0,"NORAD_CAT_ID":48768,"ELEMENT_SET_NO":999,"REV_AT_EPOCH":24703,"BSTAR":0.00010428,"MEAN_MOTION_DOT":5.2e-7,"MEAN_MOTION_DDOT":0},{"OBJECT_NAME":"ONEWEB-0230","OBJECT_ID":"2021-045C","EPOCH":"2026-07-07T04:01:40.223424","CLASSIFICATION_TYPE":"U","MEAN_MOTION":13.15548036,"ECCENTRICITY":0.000194,"INCLINATION":87.899,"RA_OF_ASC_NODE":255.2227,"ARG_OF_PERICENTER":96.1677,"MEAN_ANOMALY":263.9675,"EPHEMERIS_TYPE":0,"NORAD_CAT_ID":48769,"ELEMENT_SET_NO":999,"REV_AT_EPOCH":24729,"BSTAR":0.00045471,"MEAN_MOTION_DOT":0.00000184,"MEAN_MOTION_DDOT":0},{"OBJECT_NAME":"ONEWEB-0237","OBJECT_ID":"2021-045D","EPOCH":"2026-07-06T14:59:02.010048","CLASSIFICATION_TYPE":"U","MEAN_MOTION":13.15548053,"ECCENTRICITY":0.0002382,"INCLINATION":87.8988,"RA_OF_ASC_NODE":255.3329,"ARG_OF_PERICENTER":100.5243,"MEAN_ANOMALY":259.6155,"EPHEMERIS_TYPE":0,"NORAD_CAT_ID":48770,"ELEMENT_SET_NO":999,"REV_AT_EPOCH":24694,"BSTAR":0.00025016,"MEAN_MOTION_DOT":0.00000107,"MEAN_MOTION_DDOT":0},{"OBJECT_NAME":"ONEWEB-0235","OBJECT_ID":"2021-045E","EPOCH":"2026-07-07T03:09:10.621152","CLASSIFICATION_TYPE":"U","MEAN_MOTION":13.15549966,"ECCENTRICITY":0.0002088,"INCLINATION":87.9,"RA_OF_ASC_NODE":255.2194,"ARG_OF_PERICENTER":110.8238,"MEAN_ANOMALY":249.3116,"EPHEMERIS_TYPE":0,"NORAD_CAT_ID":48771,"ELEMENT_SET_NO":999,"REV_AT_EPOCH":24700,"BSTAR":-0.00022714,"MEAN_MOTION_DOT":-7.3e-7,"MEAN_MOTION_DDOT":0},{"OBJECT_NAME":"ONEWEB-0242","OBJECT_ID":"2021-045F","EPOCH":"2026-07-06T23:21:01.054368","CLASSIFICATION_TYPE":"U","MEAN_MOTION":13.15548026,"ECCENTRICITY":0.0001902,"INCLINATION":87.9003,"RA_OF_ASC_NODE":255.2482,"ARG_OF_PERICENTER":102.8337,"MEAN_ANOMALY":257.3006,"EPHEMERIS_TYPE":0,"NORAD_CAT_ID":48772,"ELEMENT_SET_NO":999,"REV_AT_EPOCH":24702,"BSTAR":-0.00032352,"MEAN_MOTION_DOT":-0.00000109,"MEAN_MOTION_DDOT":0},{"OBJECT_NAME":"ONEWEB-0241","OBJECT_ID":"2021-045G","EPOCH":"2026-07-06T15:44:39.187968","CLASSIFICATION_TYPE":"U","MEAN_MOTION":13.15550229,"ECCENTRICITY":0.00023,"INCLINATION":87.8992,"RA_OF_ASC_NODE":255.3272,"ARG_OF_PERICENTER":108.3352,"MEAN_ANOMALY":251.8029,"EPHEMERIS_TYPE":0,"NORAD_CAT_ID":48773,"ELEMENT_SET_NO":999,"REV_AT_EPOCH":24689,"BSTAR":-0.000020656,"MEAN_MOTION_DOT":5e-8,"MEAN_MOTION_DDOT":0},{"OBJECT_NAME":"ONEWEB-0243","OBJECT_ID":"2021-045H","EPOCH":"2026-07-07T03:27:26.536032","CLASSIFICATION_TYPE":"U","MEAN_MOTION":13.15549997,"ECCENTRICITY":0.0001648,"INCLINATION":87.8989,"RA_OF_ASC_NODE":255.2428,"ARG_OF_PERICENTER":110.6184,"MEAN_ANOMALY":249.5123,"EPHEMERIS_TYPE":0,"NORAD_CAT_ID":48774,"ELEMENT_SET_NO":999,"REV_AT_EPOCH":24698,"BSTAR":-0.00018913,"MEAN_MOTION_DOT":-5.8e-7,"MEAN_MOTION_DDOT":0},{"OBJECT_NAME":"ONEWEB-0222","OBJECT_ID":"2021-045J","EPOCH":"2026-07-07T03:03:27.747936","CLASSIFICATION_TYPE":"U","MEAN_MOTION":13.15546989,"ECCENTRICITY":0.0002161,"INCLINATION":87.9,"RA_OF_ASC_NODE":255.2151,"ARG_OF_PERICENTER":104.8258,"MEAN_ANOMALY":255.3112,"EPHEMERIS_TYPE":0,"NORAD_CAT_ID":48775,"ELEMENT_SET_NO":999,"REV_AT_EPOCH":24702,"BSTAR":-0.00015411,"MEAN_MOTION_DOT":-4.5e-7,"MEAN_MOTION_DDOT":0},{"OBJECT_NAME":"ONEWEB-0244","OBJECT_ID":"2021-045K","EPOCH":"2026-07-07T03:41:07.915776","CLASSIFICATION_TYPE":"U","MEAN_MOTION":13.15547786,"ECCENTRICITY":0.0002012,"INCLINATION":87.9,"RA_OF_ASC_NODE":255.2061,"ARG_OF_PERICENTER":101.432,"MEAN_ANOMALY":258.7036,"EPHEMERIS_TYPE":0,"NORAD_CAT_ID":48776,"ELEMENT_SET_NO":999,"REV_AT_EPOCH":24759,"BSTAR":0.000093388,"MEAN_MOTION_DOT":4.8e-7,"MEAN_MOTION_DDOT":0},{"OBJECT_NAME":"ONEWEB-0247","OBJECT_ID":"2021-045L","EPOCH":"2026-07-07T03:36:34.202304","CLASSIFICATION_TYPE":"U","MEAN_MOTION":13.15548508,"ECCENTRICITY":0.0001814,"INCLINATION":87.8989,"RA_OF_ASC_NODE":255.2357,"ARG_OF_PERICENTER":122.9288,"MEAN_ANOMALY":237.2017,"EPHEMERIS_TYPE":0,"NORAD_CAT_ID":48777,"ELEMENT_SET_NO":999,"REV_AT_EPOCH":24703,"BSTAR":-0.000050966,"MEAN_MOTION_DOT":-6e-8,"MEAN_MOTION_DDOT":0},{"OBJECT_NAME":"ONEWEB-0245","OBJECT_ID":"2021-045M","EPOCH":"2026-07-07T03:29:42.833760","CLASSIFICATION_TYPE":"U","MEAN_MOTION":13.15548998,"ECCENTRICITY":0.0002206,"INCLINATION":87.8999,"RA_OF_ASC_NODE":255.2178,"ARG_OF_PERICENTER":102.5851,"MEAN_ANOMALY":257.5526,"EPHEMERIS_TYPE":0,"NORAD_CAT_ID":48778,"ELEMENT_SET_NO":999,"REV_AT_EPOCH":24700,"BSTAR":-0.00016832,"MEAN_MOTION_DOT":-5.1e-7,"MEAN_MOTION_DDOT":0}]}
