ONEWEB-0207             
1 48242U 21031AJ  26188.19716117  .00000145  00000+0  35629-3 0  9992
2 48242  87.8978 285.7130 0002142  92.7313 267.4061 13.14504437250925
ONEWEB-0208             
1 48243U 21031AK  26188.25505238  .00000211  00000+0  53531-3 0  9996
2 48243  87.8971 285.7072 0002308 105.8221 254.3163 13.14501880250941
ONEWEB-0200             
1 48244U 21031AL  26188.21858171 -.00000192  00000+0 -55346-3 0  9996
2 48244  87.8983 285.7028 0002118  99.8412 260.2957 13.14501784250860
ONEWEB-0217             
1 48245U 21031AM  26188.23443891 -.00000083  00000+0 -25734-3 0  9995
2 48245  87.8981 285.7037 0002336 105.7443 254.3944 13.14502546250814
ONEWEB-0211             
1 48767U 21045A   26188.48825294  .00000069  00000+0  14782-3 0  9990
2 48767  87.8996 255.0331 0002532 110.9130 249.2272 13.16197582247113
ONEWEB-0223             
1 48768U 21045B   26188.19634536  .00000052  00000+0  10428-3 0  9991
2 48768  87.9000 255.2052 0002152 109.8245 250.3118 13.15548122247037
ONEWEB-0230             
1 48769U 21045C   26188.16782666  .00000184  00000+0  45471-3 0  9999
2 48769  87.8990 255.2227 0001940  96.1677 263.9675 13.15548036247290
ONEWEB-0237             
1 48770U 21045D   26187.62432882  .00000107  00000+0  25016-3 0  9991
2 48770  87.8988 255.3329 0002382 100.5243 259.6155 13.15548053246948
ONEWEB-0235             
1 48771U 21045E   26188.13137293 -.00000073  00000+0 -22714-3 0  9993
2 48771  87.9000 255.2194 0002088 110.8238 249.3116 13.15549966247000
ONEWEB-0242             
1 48772U 21045F   26187.97292887 -.00000109  00000+0 -32352-3 0  9995
2 48772  87.9003 255.2482 0001902 102.8337 257.3006 13.15548026247024
ONEWEB-0241             
1 48773U 21045G   26187.65600912  .00000005  00000+0 -20656-4 0  9992
2 48773  87.8992 255.3272 0002300 108.3352 251.8029 13.15550229246896
ONEWEB-0243             
1 48774U 21045H   26188.14405713 -.00000058  00000+0 -18913-3 0  9991
2 48774  87.8989 255.2428 0001648 110.6184 249.5123 13.15549997246987
ONEWEB-0222             
1 48775U 21045J   26188.12740449 -.00000045  00000+0 -15411-3 0  9994
2 48775  87.9000 255.2151 0002161 104.8258 255.3112 13.15546989247021
ONEWEB-0244             
1 48776U 21045K   26188.15356384  .00000048  00000+0  93388-4 0  9990
2 48776  87.9000 255.2061 0002012 101.4320 258.7036 13.15547786247590
ONEWEB-0247             
1 48777U 21045L   26188.15039586 -.00000006  00000+0 -50966-4 0  9994
2 48777  87.8989 255.2357 0001814 122.9288 237.2017 13.15548508247037
ONEWEB-0245             
1 48778U 21045M   26188.14563465 -.00000051  00000+0 -16832-3 0  9995
2 48778  87.8999 255.2178 0002206 102.5851 257.5526 13.15548998247006
